COMS 1                  
1 36744U 10032A   19161.58454985 -.00000355  00000-0  00000-0 0  9990
2 36744   0.0417  75.0136 0000769  52.7443 109.4892  1.00271775 25388
ARABSAT-5A              
1 36745U 10032B   19162.49831581  .00000143  00000-0  00000+0 0  9996
2 36745   0.0900  63.4137 0004908  35.1530  10.8139  1.00274812 32932
ECHOSTAR 15             
1 36792U 10034A   19161.46800547 -.00000292  00000-0  00000-0 0  9991
2 36792   0.0164 299.9923 0001910 113.3140 312.0652  1.00271093 32699
NILESAT 201             
1 36830U 10037A   19162.34722317 -.00000068  00000-0  00000+0 0  9993
2 36830   0.0486 166.8752 0006160 274.2603 296.2576  1.00271929 32599
RASCOM-QAF 1R           
1 36831U 10037B   19161.55951316  .00000008  00000-0  00000+0 0  9992
2 36831   0.0231  65.9923 0004719  13.9509  22.9844  1.00272261 32589
AEHF-1 (USA 214)        
1 36868U 10039A   19161.55977486  .00000018  00000-0  00000-0 0  9992
2 36868   1.8769 105.7427 0004329 322.4834  35.8937  1.00273163 27944
CHINASAT 6A (ZX 6A)     
1 37150U 10042A   19161.72752956 -.00000364  00000-0  00000-0 0  9998
2 37150   0.0627 129.1847 0000789  75.3991  81.1883  1.00269910 32195
QZS-1 (MICHIBIKI-1)     
1 37158U 10045A   19161.56323906 -.00000085  00000-0  00000+0 0  9999
2 37158  41.3235 148.8955 0757980 270.5875 180.6479  1.00276464 32015
XM-5                    
1 37185U 10053A   19162.47519830 -.00000215  00000-0  00000+0 0  9997
2 37185   0.0193 338.4556 0001288 357.0755   9.8461  1.00270573 31753
BSAT-3B                 
1 37207U 10056B   19161.93983780 -.00000361  00000-0  00000+0 0  9996
2 37207   0.0655 311.1135 0002059  66.6151 329.4722  1.00272214 31577
BEIDOU 6                
1 37210U 10057A   19161.73442120 -.00000123  00000-0  00000-0 0  9994
2 37210   0.8000  45.2900 0001259 132.4068 145.4717  1.00272172 31571
SKYTERRA 1              
1 37218U 10061A   19162.56833959 -.00000130  00000-0  00000+0 0  9990
2 37218   2.4028 345.7822 0000323 177.0145 200.1355  1.00271903 31534
ZHONGXING-20A           
1 37234U 10064A   19162.51738045 -.00000361  00000-0  00000+0 0  9992
2 37234   0.1654  94.3525 0001006 328.9858 148.8275  1.00267199 31335
HYLAS 1                 
1 37237U 10065A   19162.70428503 -.00000190  00000-0  00000+0 0  9992
2 37237   0.0781  86.3710 0008794  29.9468  20.4442  0.99942356 31312
INTELSAT 17 (IS-17)     
1 37238U 10065B   19162.00289628 -.00000012  00000-0  00000+0 0  9992
2 37238   0.0234 273.5367 0002671 172.1967 240.3614  1.00272952 31211
EUTELSAT KA-SAT 9A      
1 37258U 10069A   19161.56073446  .00000052  00000-0  00000-0 0  9991
2 37258   0.0167   5.8535 0005881  54.6863  48.9473  1.00272913 18336
HISPASAT 30W-5          
1 37264U 10070A   19162.48619001 -.00000226  00000-0  00000+0 0  9998
2 37264   0.0499 124.3738 0005061 335.0739 305.1100  1.00272071 30975
KOREASAT 6              
1 37265U 10070B   19162.51537403 -.00000372  00000-0  00000+0 0  9990
2 37265   0.0134  46.0058 0001926   7.2592 147.8417  1.00271144 30981
BEIDOU 8                
1 37384U 11013A   19160.98486529 -.00000220  00000-0  10000-3 0  9998
2 37384  58.7648  65.4249 0039201 207.6076  97.5911  1.00258137 29963
INTELSAT NEW DAWN       
1 37392U 11016A   19162.28335979  .00000145  00000-0  00000+0 0  9997
2 37392   0.0431 148.4427 0001240 295.1411 310.5659  1.00274079 29813
YAHSAT 1A               
1 37393U 11016B   19162.43088243  .00000091  00000-0  00000+0 0  9994
2 37393   0.0273  87.1190 0002847   1.2804  18.6717  1.00271842 29861
SBIRS GEO-1 (USA 230)   
1 37481U 11019A   19162.43358675 -.00000020  00000-0  00000+0 0  9997
2 37481   2.5223 331.6233 0002663 103.4041  46.7486  1.00272271 29648
TELSTAR 14R             
1 37602U 11021A   19162.16924564 -.00000290  00000-0  00000+0 0  9990
2 37602   0.0163   4.7043 0003310  36.5687 215.8722  1.00270711 30087
GSAT-8                  
1 37605U 11022A   19161.56998146  .00000075  00000-0  00000+0 0  9994
2 37605   0.0506 118.2222 0002662 181.4473 219.1810  1.00271281 29539
ST-2                    
1 37606U 11022B   19162.52063309 -.00000221  00000-0  00000+0 0  9990
2 37606   0.0161 356.6015 0001210  93.1531  85.2556  1.00269736 29550
CHINASAT 10 (ZX 10)     
1 37677U 11026A   19162.37068965 -.00000363  00000-0  00000+0 0  9995
2 37677   0.0277 273.8668 0003251 221.9021   7.5754  1.00274078 29262
TIANLIAN 1-02           
1 37737U 11032A   19161.73660211 -.00000028  00000-0  00000-0 0  9999
2 37737   2.8993  75.1445 0009998  99.1707 160.5563  1.00273112 29019
GSAT-12                 
1 37746U 11034A   19161.57556455 -.00000176  00000-0  00000+0 0  9990
2 37746   0.0862 108.6184 0006816 348.7604  91.5287  1.00271129 29259
SES-3                   
1 37748U 11035A   19161.61019722 -.00000112  00000-0  00000-0 0  9990
2 37748   0.0180  24.7724 0002727  53.1327 297.4277  1.00271607 28906
KAZSAT-2                
1 37749U 11035B   19161.57626244 -.00000207  00000-0  00000-0 0  9994
2 37749   0.0362 216.3081 0001270 272.5008  63.7456  1.00269128 27681
BEIDOU 9                
1 37763U 11038A   19161.38077042 -.00000026  00000-0  10000-3 0  9991
2 37763  54.4308 188.9053 0065298 225.3496  74.6356  1.00288034 28936
ASTRA 1N                
1 37775U 11041A   19162.49604767  .00000109  00000-0  00000+0 0  9997
2 37775   0.0372  14.8012 0005533  43.4588  39.0465  1.00270331 28708
BSAT-3C (JCSAT-110R)    
1 37776U 11041B   19161.58088595 -.00000361  00000-0  00000-0 0  9994
2 37776   0.0170 335.1649 0000207 156.8108  85.7605  1.00270907 24787
PAKSAT-1R               
1 37779U 11042A   19161.56657926  .00000144  00000-0  00000-0 0  9994
2 37779   0.0405 174.4433 0004198 254.3208  71.8238  1.00268994 28778
CHINASAT 1A (ZX 1A)     
1 37804U 11047A   19161.94376344 -.00000348  00000-0  00000+0 0  9998
2 37804   0.0461 143.7390 0001395 290.1799 294.6968  1.00271009 28371
COSMOS 2473             
1 37806U 11048A   19162.41770980 -.00000118  00000-0  00000+0 0  9993
2 37806   0.0747 114.2201 0003022 341.5641 300.5503  1.00271241 28370
SES-2                   
1 37809U 11049A   19161.53674352 -.00000206  00000-0  00000-0 0  9994
2 37809   0.0105 358.1046 0002544  73.3955 293.3293  1.00271628 28300
ARABSAT-5C              
1 37810U 11049B   19162.17618752  .00000113  00000-0  00000+0 0  9994
2 37810   0.0609  14.0317 0003485  83.1750 245.4205  1.00271611 28210
EUTELSAT 7 WEST A       
1 37816U 11051A   19162.41893111 -.00000071  00000-0  00000+0 0  9998
2 37816   0.0612  13.6267 0004378 103.4210 285.9163  1.00272068 28273
QUETZSAT 1              
1 37826U 11054A   19162.47685576 -.00000252  00000-0  00000+0 0  9993
2 37826   0.0286  52.1805 0002926  24.7139 277.3009  1.00271611 28401
INTELSAT 18 (IS-18)     
1 37834U 11056A   19161.60306053  .00000043  00000-0  00000-0 0  9996
2 37834   0.0151 315.2949 0002558 129.7454 210.7207  1.00271684 28232
EUTELSAT 16A            
1 37836U 11057A   19161.56213022  .00000093  00000-0  00000+0 0  9991
2 37836   0.0655  12.2715 0004980  70.0645  34.6401  1.00271052 28080
VIASAT-1                
1 37843U 11059A   19162.55805403 -.00000034  00000-0  00000+0 0  9997
2 37843   0.0036  79.1590 0002702 356.3858 269.8508  1.00271599 28581
ASIASAT 7               
1 37933U 11069A   19162.51507597 -.00000344  00000-0  00000+0 0  9991
2 37933   0.0165 313.3434 0001674 101.1669 135.9759  1.00272371 27766
BEIDOU 10               
1 37948U 11073A   19161.51240596 -.00000162  00000-0  10000-3 0  9997
2 37948  52.1714 302.2984 0059127 206.8080  26.8088  1.00256537 27694
LUCH 5A                 
1 37951U 11074B   19161.73581698 -.00000056  00000-0  00000-0 0  9995
2 37951   2.4702 128.7151 0003456 304.3987 257.4068  1.00270775 27481
NIGCOMSAT 1R            
1 38014U 11077A   19162.50067118  .00000135  00000-0  00000+0 0  9997
2 38014   0.0499 130.3262 0003465 290.1223  61.8159  1.00270664 27335
FENGYUN 2F              
1 38049U 12002A   19161.76675668 -.00000368  00000-0  00000-0 0  9996
2 38049   1.2263  81.9771 0001548 146.7268  58.2069  1.00277260 27188
WGS F4 (USA 233)        
1 38070U 12003A   19162.43803578 -.00000225  00000-0  00000+0 0  9990
2 38070   0.0183 354.6204 0000444  21.2269 129.7345  1.00269762 27025
SES-4                   
1 38087U 12007A   19162.12886497 -.00000179  00000-0  00000+0 0  9997
2 38087   0.0115   5.1728 0002391  74.2495 204.1529  1.00271051 26787
BEIDOU 11               
1 38091U 12008A   19162.50389891  .00000047  00000-0  00000+0 0  9994
2 38091   1.4064  63.3516 0009615 294.0325 142.1947  1.00272036 26780
MUOS-1                  
1 38093U 12009A   19161.59159644  .00000053  00000-0  00000-0 0  9994
2 38093   2.6499 355.2567 0055071 175.7549 123.5974  1.00271538 26707
INTELSAT 22 (IS-22)     
1 38098U 12011A   19162.43480806 -.00000070  00000-0  00000+0 0  9992
2 38098   0.0118  79.6446 0002813  15.1197  33.3593  1.00273041 26354
APSTAR 7                
1 38107U 12013A   19161.87063265 -.00000112  00000-0  00000-0 0  9996
2 38107   0.0369  54.9430 0002486  31.9740 201.9406  1.00271470 26460
YAHSAT 1B               
1 38245U 12016A   19162.42992285  .00000116  00000-0  00000+0 0  9999
2 38245   0.0144 318.5099 0002833 121.7870  21.5374  1.00270340 26221
AEHF-2 (USA 235)        
1 38254U 12019A   19162.40697978 -.00000286  00000-0  00000+0 0  9990
2 38254   1.5872  28.8507 0005461  51.8211 257.7692  1.00270902 25984
JCSAT-13                
1 38331U 12023A   19161.94262935 -.00000367  00000-0  00000+0 0  9990
2 38331   0.0435 127.4900 0002225 302.2556 292.6027  1.00271115 25877
VINASAT-2               
1 38332U 12023B   19161.58524774 -.00000339  00000-0  00000+0 0  9992
2 38332   0.0096 356.6995 0002412  91.0398 153.4404  1.00271386 25903
NIMIQ 6                 
1 38342U 12026A   19161.97150444 -.00000184  00000-0  00000+0 0  9996
2 38342   0.0119  27.3652 0002588  48.8500  81.4402  1.00272307 25891
